[{"OBJECT_NAME":"ONEWEB-0258","OBJECT_ID":"2021-060K","EPOCH":"2026-05-23T06:04:47.805312","MEAN_MOTION":13.16593332,"ECCENTRICITY":0.0001943,"INCLINATION":87.9107,"RA_OF_ASC_NODE":233.7331,"ARG_OF_PERICENTER":102.2131,"MEAN_ANOMALY":257.9217,"EPHEMERIS_TYPE":0,"CLASSIFICATION_TYPE":"U","NORAD_CAT_ID":48976,"ELEMENT_SET_NO":999,"REV_AT_EPOCH":23631,"BSTAR":8.9694e-05,"MEAN_MOTION_DOT":4.7e-07,"MEAN_MOTION_DDOT":0.0},{"OBJECT_NAME":"ONEWEB-0259","OBJECT_ID":"2021-060L","EPOCH":"2026-05-23T11:23:59.941248","MEAN_MOTION":13.16593349,"ECCENTRICITY":0.000181,"INCLINATION":87.9105,"RA_OF_ASC_NODE":233.689,"ARG_OF_PERICENTER":103.3351,"MEAN_ANOMALY":256.7982,"EPHEMERIS_TYPE":0,"CLASSIFICATION_TYPE":"U","NORAD_CAT_ID":48977,"ELEMENT_SET_NO":999,"REV_AT_EPOCH":23637,"BSTAR":4.5169e-05,"MEAN_MOTION_DOT":3e-07,"MEAN_MOTION_DDOT":0.0},{"OBJECT_NAME":"ONEWEB-0260","OBJECT_ID":"2021-060M","EPOCH":"2026-05-23T13:00:52.333632","MEAN_MOTION":13.16596217,"ECCENTRICITY":0.0002321,"INCLINATION":87.91,"RA_OF_ASC_NODE":233.6782,"ARG_OF_PERICENTER":93.8731,"MEAN_ANOMALY":266.2665,"EPHEMERIS_TYPE":0,"CLASSIFICATION_TYPE":"U","NORAD_CAT_ID":48978,"ELEMENT_SET_NO":999,"REV_AT_EPOCH":23636,"BSTAR":0.00010205,"MEAN_MOTION_DOT":5.2e-07,"MEAN_MOTION_DDOT":0.0},{"OBJECT_NAME":"ONEWEB-0261","OBJECT_ID":"2021-060N","EPOCH":"2026-05-23T12:17:34.581120","MEAN_MOTION":13.16594728,"ECCENTRICITY":0.0001837,"INCLINATION":87.9102,"RA_OF_ASC_NODE":233.6833,"ARG_OF_PERICENTER":91.637,"MEAN_ANOMALY":268.4971,"EPHEMERIS_TYPE":0,"CLASSIFICATION_TYPE":"U","NORAD_CAT_ID":48979,"ELEMENT_SET_NO":999,"REV_AT_EPOCH":23641,"BSTAR":-1.0987e-05,"MEAN_MOTION_DOT":9e-08,"MEAN_MOTION_DDOT":0.0},{"OBJECT_NAME":"ONEWEB-0262","OBJECT_ID":"2021-060P","EPOCH":"2026-05-23T11:49:04.368288","MEAN_MOTION":13.16595004,"ECCENTRICITY":0.000172,"INCLINATION":87.9111,"RA_OF_ASC_NODE":233.6729,"ARG_OF_PERICENTER":105.1662,"MEAN_ANOMALY":254.9659,"EPHEMERIS_TYPE":0,"CLASSIFICATION_TYPE":"U","NORAD_CAT_ID":48980,"ELEMENT_SET_NO":999,"REV_AT_EPOCH":23637,"BSTAR":-0.00010876,"MEAN_MOTION_DOT":-2.9e-07,"MEAN_MOTION_DDOT":0.0},{"OBJECT_NAME":"ONEWEB-0263","OBJECT_ID":"2021-060Q","EPOCH":"2026-05-23T12:34:40.296864","MEAN_MOTION":13.16592919,"ECCENTRICITY":0.0001745,"INCLINATION":87.9105,"RA_OF_ASC_NODE":233.6778,"ARG_OF_PERICENTER":94.5557,"MEAN_ANOMALY":265.5773,"EPHEMERIS_TYPE":0,"CLASSIFICATION_TYPE":"U","NORAD_CAT_ID":48981,"ELEMENT_SET_NO":999,"REV_AT_EPOCH":23634,"BSTAR":0.00019102,"MEAN_MOTION_DOT":8.6e-07,"MEAN_MOTION_DDOT":0.0},{"OBJECT_NAME":"ONEWEB-0264","OBJECT_ID":"2021-060R","EPOCH":"2026-05-23T06:10:30.820224","MEAN_MOTION":13.16593391,"ECCENTRICITY":0.0001973,"INCLINATION":87.9113,"RA_OF_ASC_NODE":233.7342,"ARG_OF_PERICENTER":93.9544,"MEAN_ANOMALY":266.1812,"EPHEMERIS_TYPE":0,"CLASSIFICATION_TYPE":"U","NORAD_CAT_ID":48982,"ELEMENT_SET_NO":999,"REV_AT_EPOCH":23631,"BSTAR":-0.00011223,"MEAN_MOTION_DOT":-3e-07,"MEAN_MOTION_DDOT":0.0},{"OBJECT_NAME":"ONEWEB-0266","OBJECT_ID":"2021-060T","EPOCH":"2026-05-23T06:41:16.285344","MEAN_MOTION":13.16593953,"ECCENTRICITY":0.0002033,"INCLINATION":87.9105,"RA_OF_ASC_NODE":233.7199,"ARG_OF_PERICENTER":103.1179,"MEAN_ANOMALY":257.0179,"EPHEMERIS_TYPE":0,"CLASSIFICATION_TYPE":"U","NORAD_CAT_ID":48984,"ELEMENT_SET_NO":999,"REV_AT_EPOCH":23630,"BSTAR":-0.0007548,"MEAN_MOTION_DOT":-2.76e-06,"MEAN_MOTION_DDOT":0.0},{"OBJECT_NAME":"ONEWEB-0267","OBJECT_ID":"2021-060U","EPOCH":"2026-05-23T12:25:33.055680","MEAN_MOTION":13.16592536,"ECCENTRICITY":0.0001914,"INCLINATION":87.9106,"RA_OF_ASC_NODE":233.669,"ARG_OF_PERICENTER":95.0729,"MEAN_ANOMALY":265.062,"EPHEMERIS_TYPE":0,"CLASSIFICATION_TYPE":"U","NORAD_CAT_ID":48985,"ELEMENT_SET_NO":999,"REV_AT_EPOCH":23634,"BSTAR":-8.271e-05,"MEAN_MOTION_DOT":-1.9e-07,"MEAN_MOTION_DDOT":0.0},{"OBJECT_NAME":"ONEWEB-0268","OBJECT_ID":"2021-060V","EPOCH":"2026-05-23T06:11:39.712992","MEAN_MOTION":13.16594905,"ECCENTRICITY":0.0002113,"INCLINATION":87.9112,"RA_OF_ASC_NODE":233.7305,"ARG_OF_PERICENTER":98.5006,"MEAN_ANOMALY":261.6364,"EPHEMERIS_TYPE":0,"CLASSIFICATION_TYPE":"U","NORAD_CAT_ID":48986,"ELEMENT_SET_NO":999,"REV_AT_EPOCH":23657,"BSTAR":4.9869000000000007e-05,"MEAN_MOTION_DOT":3.2e-07,"MEAN_MOTION_DDOT":0.0},{"OBJECT_NAME":"ONEWEB-0269","OBJECT_ID":"2021-060W","EPOCH":"2026-05-23T07:33:43.325856","MEAN_MOTION":13.16595303,"ECCENTRICITY":0.0002249,"INCLINATION":87.9096,"RA_OF_ASC_NODE":233.7244,"ARG_OF_PERICENTER":101.3681,"MEAN_ANOMALY":258.7702,"EPHEMERIS_TYPE":0,"CLASSIFICATION_TYPE":"U","NORAD_CAT_ID":48987,"ELEMENT_SET_NO":999,"REV_AT_EPOCH":23635,"BSTAR":0.00019171,"MEAN_MOTION_DOT":8.6e-07,"MEAN_MOTION_DDOT":0.0},{"OBJECT_NAME":"ONEWEB-0270","OBJECT_ID":"2021-060X","EPOCH":"2026-05-23T06:09:22.095936","MEAN_MOTION":13.16594426,"ECCENTRICITY":0.000159,"INCLINATION":87.9113,"RA_OF_ASC_NODE":233.7325,"ARG_OF_PERICENTER":98.6713,"MEAN_ANOMALY":261.4598,"EPHEMERIS_TYPE":0,"CLASSIFICATION_TYPE":"U","NORAD_CAT_ID":48988,"ELEMENT_SET_NO":999,"REV_AT_EPOCH":23638,"BSTAR":-0.00060428,"MEAN_MOTION_DOT":-2.18e-06,"MEAN_MOTION_DDOT":0.0},{"OBJECT_NAME":"ONEWEB-0271","OBJECT_ID":"2021-060Y","EPOCH":"2026-05-23T07:40:33.706848","MEAN_MOTION":13.16594514,"ECCENTRICITY":0.0001802,"INCLINATION":87.9104,"RA_OF_ASC_NODE":233.7104,"ARG_OF_PERICENTER":95.4678,"MEAN_ANOMALY":264.6658,"EPHEMERIS_TYPE":0,"CLASSIFICATION_TYPE":"U","NORAD_CAT_ID":48989,"ELEMENT_SET_NO":999,"REV_AT_EPOCH":23639,"BSTAR":-8.535199999999999e-05,"MEAN_MOTION_DOT":-2e-07,"MEAN_MOTION_DDOT":0.0},{"OBJECT_NAME":"ONEWEB-0272","OBJECT_ID":"2021-060Z","EPOCH":"2026-05-23T11:51:21.479904","MEAN_MOTION":13.16595398,"ECCENTRICITY":0.0002102,"INCLINATION":87.911,"RA_OF_ASC_NODE":233.6875,"ARG_OF_PERICENTER":92.2869,"MEAN_ANOMALY":267.8503,"EPHEMERIS_TYPE":0,"CLASSIFICATION_TYPE":"U","NORAD_CAT_ID":48990,"ELEMENT_SET_NO":999,"REV_AT_EPOCH":23636,"BSTAR":0.00016527,"MEAN_MOTION_DOT":7.6e-07,"MEAN_MOTION_DDOT":0.0},{"OBJECT_NAME":"ONEWEB-0273","OBJECT_ID":"2021-060AA","EPOCH":"2026-05-23T06:54:58.090176","MEAN_MOTION":13.16594144,"ECCENTRICITY":0.0001875,"INCLINATION":87.9108,"RA_OF_ASC_NODE":233.7268,"ARG_OF_PERICENTER":99.1843,"MEAN_ANOMALY":260.95,"EPHEMERIS_TYPE":0,"CLASSIFICATION_TYPE":"U","NORAD_CAT_ID":48991,"ELEMENT_SET_NO":999,"REV_AT_EPOCH":23631,"BSTAR":-0.00038394,"MEAN_MOTION_DOT":-1.34e-06,"MEAN_MOTION_DDOT":0.0},{"OBJECT_NAME":"ONEWEB-0274","OBJECT_ID":"2021-060AB","EPOCH":"2026-05-23T12:59:44.372256","MEAN_MOTION":13.16596123,"ECCENTRICITY":0.0002211,"INCLINATION":87.9096,"RA_OF_ASC_NODE":233.6817,"ARG_OF_PERICENTER":93.7374,"MEAN_ANOMALY":266.401,"EPHEMERIS_TYPE":0,"CLASSIFICATION_TYPE":"U","NORAD_CAT_ID":48992,"ELEMENT_SET_NO":999,"REV_AT_EPOCH":23638,"BSTAR":8.322e-05,"MEAN_MOTION_DOT":4.5e-07,"MEAN_MOTION_DDOT":0.0}]