ONEWEB-0258             
1 48976U 21060K   26143.25333108  .00000047  00000+0  89694-4 0  9994
2 48976  87.9107 233.7331 0001943 102.2131 257.9217 13.16593332236311
ONEWEB-0259             
1 48977U 21060L   26143.47499932  .00000030  00000+0  45169-4 0  9998
2 48977  87.9105 233.6890 0001810 103.3351 256.7982 13.16593349236378
ONEWEB-0260             
1 48978U 21060M   26143.54227238  .00000052  00000+0  10205-3 0  9991
2 48978  87.9100 233.6782 0002321  93.8731 266.2665 13.16596217236367
ONEWEB-0261             
1 48979U 21060N   26143.51220580  .00000009  00000+0 -10987-4 0  9993
2 48979  87.9102 233.6833 0001837  91.6370 268.4971 13.16594728236418
ONEWEB-0262             
1 48980U 21060P   26143.49241167 -.00000029  00000+0 -10876-3 0  9995
2 48980  87.9111 233.6729 0001720 105.1662 254.9659 13.16595004236376
ONEWEB-0263             
1 48981U 21060Q   26143.52407751  .00000086  00000+0  19102-3 0  9995
2 48981  87.9105 233.6778 0001745  94.5557 265.5773 13.16592919236349
ONEWEB-0264             
1 48982U 21060R   26143.25730116 -.00000030  00000+0 -11223-3 0  9997
2 48982  87.9113 233.7342 0001973  93.9544 266.1812 13.16593391236312
ONEWEB-0266             
1 48984U 21060T   26143.27866071 -.00000276  00000+0 -75480-3 0  9998
2 48984  87.9105 233.7199 0002033 103.1179 257.0179 13.16593953236309
ONEWEB-0267             
1 48985U 21060U   26143.51774370 -.00000019  00000+0 -82710-4 0  9996
2 48985  87.9106 233.6690 0001914  95.0729 265.0620 13.16592536236343
ONEWEB-0268             
1 48986U 21060V   26143.25809853  .00000032  00000+0  49869-4 0  9994
2 48986  87.9112 233.7305 0002113  98.5006 261.6364 13.16594905236577
ONEWEB-0269             
1 48987U 21060W   26143.31508479  .00000086  00000+0  19171-3 0  9993
2 48987  87.9096 233.7244 0002249 101.3681 258.7702 13.16595303236355
ONEWEB-0270             
1 48988U 21060X   26143.25650574 -.00000218  00000+0 -60428-3 0  9991
2 48988  87.9113 233.7325 0001590  98.6713 261.4598 13.16594426236380
ONEWEB-0271             
1 48989U 21060Y   26143.31983457 -.00000020  00000+0 -85352-4 0  9993
2 48989  87.9104 233.7104 0001802  95.4678 264.6658 13.16594514236398
ONEWEB-0272             
1 48990U 21060Z   26143.49399861  .00000076  00000+0  16527-3 0  9990
2 48990  87.9110 233.6875 0002102  92.2869 267.8503 13.16595398236364
ONEWEB-0273             
1 48991U 21060AA  26143.28817234 -.00000134  00000+0 -38394-3 0  9990
2 48991  87.9108 233.7268 0001875  99.1843 260.9500 13.16594144236317
ONEWEB-0274             
1 48992U 21060AB  26143.54148579  .00000045  00000+0  83220-4 0  9997
2 48992  87.9096 233.6817 0002211  93.7374 266.4010 13.16596123236380
